NORAD_CAT_ID,OBJECT_NAME,OBJECT_TYPE,EPOCH,MEAN_MOTION,ECCENTRICITY,INCLINATION,RA_OF_ASC_NODE,ARG_OF_PERICENTER,MEAN_ANOMALY,BSTAR,MEAN_MOTION_DOT,MEAN_MOTION_DDOT,TLE_LINE0,TLE_LINE1,TLE_LINE2,SEMIMAJOR_AXIS,PERIOD,APOGEE,PERIGEE,DECAYED
52348.0,STARLINK-3829,PAYLOAD,2023-01-10 14:22:49,15.08840552,0.0001789,53.216,340.042,43.5981,316.5152,1.4842e-05,-5.2e-07,0.0,0 STARLINK-3829,1 52348U 22045T   23010.59918635 -.00000052  00000-0  14842-4 0  9998,2 52348  53.2160 340.0420 0001789  43.5981 316.5152 15.08840552 41555,6917.879,95.438,540.981,538.506,0.0
52348.0,STARLINK-3829,PAYLOAD,2023-01-10 17:33:35,15.08851215,0.0001665999999999,53.2153,339.4477,42.216,317.896,-0.00017744,-3.112e-05,0.0,0 STARLINK-3829,1 52348U 22045T   23010.73166132 -.00003112  00000-0 -17744-3 0  9995,2 52348  53.2153 339.4477 0001666  42.2160 317.8960 15.08851215 41571,6917.846,95.437,540.864,538.559,0.0
52348.0,STARLINK-3829,PAYLOAD,2023-01-11 04:41:16,15.0886553,0.0001743,53.2151,337.3663,43.5601,316.5529,0.00047269,7.248e-05,0.0,0 STARLINK-3829,1 52348U 22045T   23011.19533395  .00007248  00000-0  47269-3 0  9992,2 52348  53.2151 337.3663 0001743  43.5601 316.5529 15.08865530 41643,6917.802,95.436,540.873,538.462,0.0
52348.0,STARLINK-3829,PAYLOAD,2023-01-11 14:13:35,15.08851842,0.0001629,53.2143,335.5832,41.4454,318.6662,0.00022587,3.3100000000000005e-05,0.0,0 STARLINK-3829,1 52348U 22045T   23011.59277671  .00003310  00000-0  22587-3 0  9990,2 52348  53.2143 335.5832 0001629  41.4454 318.6662 15.08851842 41707,6917.844,95.437,540.836,538.582,0.0
52348.0,STARLINK-3829,PAYLOAD,2023-01-12 02:56:41,15.08841212,0.000144,53.2151,333.2033,59.4786,300.6348,3.7959e-05,3.16e-06,0.0,0 STARLINK-3829,1 52348U 22045T   23012.12270050  .00000316  00000-0  37959-4 0  9997,2 52348  53.2151 333.2033 0001440  59.4786 300.6348 15.08841212 41782,6917.877,95.437,540.738,538.746,0.0
52348.0,STARLINK-3829,PAYLOAD,2023-01-12 20:25:56,15.08829022,0.0001446,53.2152,329.9341,66.312,293.8024,-9.8913e-05,-1.861e-05,0.0,0 STARLINK-3829,1 52348U 22045T   23012.85135023 -.00001861  00000-0 -98913-4 0  9992,2 52348  53.2152 329.9341 0001446  66.3120 293.8024 15.08829022 41893,6917.914000000002,95.438,540.779,538.779,0.0
52348.0,STARLINK-3829,PAYLOAD,2023-01-12 22:01:20,15.08816797,0.0001289,53.2149,329.6358,77.8945,282.2191,-0.00031238,-5.253e-05,0.0,0 STARLINK-3829,1 52348U 22045T   23012.91759454 -.00005253  00000-0 -31238-3 0  9994,2 52348  53.2149 329.6358 0001289  77.8945 282.2191 15.08816797 41905,6917.951,95.439,540.7080000000002,538.925,0.0
52348.0,STARLINK-3829,PAYLOAD,2023-01-12 23:36:43,15.08814778,0.0001418,53.2151,329.3393,73.0278,287.0869,-0.00033298,-5.58e-05,0.0,0 STARLINK-3829,1 52348U 22045T   23012.98383690 -.00005580  00000-0 -33298-3 0  9997,2 52348  53.2151 329.3393 0001418  73.0278 287.0869 15.08814778 41918,6917.956999999999,95.439,540.803,538.842,0.0
52348.0,STARLINK-3829,PAYLOAD,2023-01-13 13:55:11,15.08830655,0.0001319,53.2151,326.6603,77.7158,282.3982,0.00012904,1.766e-05,0.0,0 STARLINK-3829,1 52348U 22045T   23013.57999885  .00001766  00000-0  12904-3 0  9993,2 52348  53.2151 326.6603 0001319  77.7158 282.3982 15.08830655 42007,6917.909000000001,95.438,540.686,538.861,0.0
52348.0,STARLINK-3829,PAYLOAD,2023-01-14 05:49:03,15.08857267,0.0001367,53.2141,323.6887,89.5442,270.5707,0.0010765,0.00016894,0.0,0 STARLINK-3829,1 52348U 22045T   23014.24239887  .00016894  00000-0  10765-2 0  9997,2 52348  53.2141 323.6887 0001367  89.5442 270.5707 15.08857267 42100,6917.828,95.436,540.638,538.747,0.0
52348.0,STARLINK-3829,PAYLOAD,2023-01-14 13:45:59,15.08838833,0.000223,53.2142,322.2031,77.9968,282.1274,0.00030029,4.494e-05,0.0,0 STARLINK-3829,1 52348U 22045T   23014.57360606  .00004494  00000-0  30029-3 0  9996,2 52348  53.2142 322.2031 0002230  77.9968 282.1274 15.08838833 42152,6917.884,95.438,541.2919999999999,538.206,0.0
52348.0,STARLINK-3829,PAYLOAD,2023-01-14 20:07:31,15.08861099,0.000131,53.2142,321.0117,74.1068,286.0069,0.00085183,0.00013303,0.0,0 STARLINK-3829,1 52348U 22045T   23014.83855673  .00013303  00000-0  85183-3 0  9998,2 52348  53.2142 321.0117 0001310  74.1068 286.0069 15.08861099 42191,6917.816,95.436,540.587,538.775,0.0
52348.0,STARLINK-3829,PAYLOAD,2023-01-15 13:36:44,15.088882,0.0001774,53.2153,317.7432,61.6224,298.4946,0.0010548,0.00016561,0.0,0 STARLINK-3829,1 52348U 22045T   23015.56717902  .00016561  00000-0  10548-2 0  9992,2 52348  53.2153 317.7432 0001774  61.6224 298.4946 15.08888200 42301,6917.733,95.435,540.825,538.371,0.0
52348.0,STARLINK-3829,PAYLOAD,2023-01-15 18:22:55,15.08845957,0.0001163,53.2138,316.848,69.1214,290.9903,0.00068487,0.0001063,0.0,0 STARLINK-3829,1 52348U 22045T   23015.76591888  .00010630  00000-0  68487-3 0  9994,2 52348  53.2138 316.8480 0001163  69.1214 290.9903 15.08845957 42336,6917.861999999999,95.437,540.5319999999999,538.923,0.0
52348.0,STARLINK-3829,PAYLOAD,2023-01-16 02:19:50,15.08884014,0.0001146,53.2137,315.3607,67.9345,292.1768,0.0030989,0.00049437,0.0,0 STARLINK-3829,1 52348U 22045T   23016.09711411  .00049437  00000-0  30989-2 0  9999,2 52348  53.2137 315.3607 0001146  67.9345 292.1768 15.08884014 42387,6917.746,95.435,540.404,538.818,0.0
52348.0,STARLINK-3829,PAYLOAD,2023-01-17 05:21:25,15.08840767,0.0001257,53.2169,310.31,31.1141,328.9925,0.0017783,0.00028128,0.0,0 STARLINK-3829,1 52348U 22045T   23017.22320673  .00028128  00000-0  17783-2 0  9992,2 52348  53.2169 310.3100 0001257  31.1141 328.9925 15.08840767 42554,6917.878000000001,95.438,540.613,538.873,0.0
52348.0,STARLINK-3829,PAYLOAD,2023-01-17 06:56:48,15.08826781,0.0001261,53.2149,310.0087,88.39200000000001,271.7216,0.0015995,0.0002525,0.0,0 STARLINK-3829,1 52348U 22045T   23017.28944827  .00025250  00000-0  15995-2 0  9997,2 52348  53.2149 310.0087 0001261  88.3920 271.7216 15.08826781 42566,6917.920999999999,95.438,540.658,538.913,0.0
52348.0,STARLINK-3829,PAYLOAD,2023-01-17 19:39:54,15.08823029,0.0001375999999999,53.2155,307.6311,84.2776,275.8373,0.0022056,0.00034972,0.0,0 STARLINK-3829,1 52348U 22045T   23017.81937763  .00034972  00000-0  22056-2 0  9994,2 52348  53.2155 307.6311 0001376  84.2776 275.8373 15.08823029 42646,6917.932,95.439,540.749,538.845,0.0
52348.0,STARLINK-3829,PAYLOAD,2023-01-18 00:26:03,15.08843409,0.0001281999999999,53.2156,306.7393,82.9025,277.2113,0.0016304,0.00025757,0.0,0 STARLINK-3829,1 52348U 22045T   23018.01809553  .00025757  00000-0  16304-2 0  9992,2 52348  53.2156 306.7393 0001282  82.9025 277.2113 15.08843409 42670,6917.87,95.437,540.622,538.8480000000001,0.0
52348.0,STARLINK-3829,PAYLOAD,2023-01-18 11:33:45,15.08858137,0.0001933,53.2155,304.655,81.6875,278.4336,0.0017921,0.00028363,0.0,0 STARLINK-3829,1 52348U 22045T   23018.48177499  .00028363  00000-0  17921-2 0  9992,2 52348  53.2155 304.6550 0001933  81.6875 278.4336 15.08858137 42745,6917.825,95.436,541.0269999999999,538.3530000000001,0.0
52348.0,STARLINK-3829,PAYLOAD,2023-01-18 22:41:26,15.08865775,0.0001234,53.2154,302.5744,105.8405,254.2723,0.0011155999999999,0.00017524,0.0,0 STARLINK-3829,1 52348U 22045T   23018.94544555  .00017524  00000-0  11156-2 0  9995,2 52348  53.2154 302.5744 0001234 105.8405 254.2723 15.08865775 42814,6917.802,95.436,540.52,538.813,0.0
52348.0,STARLINK-3829,PAYLOAD,2023-01-19 11:24:31,15.0885423,0.0002546,53.2155,300.1954,69.0195,291.1069,0.00060494,9.356e-05,0.0,0 STARLINK-3829,1 52348U 22045T   23019.47536668  .00009356  00000-0  60494-3 0  9994,2 52348  53.2155 300.1954 0002546  69.0195 291.1069 15.08854230 42891,6917.837,95.437,541.4630000000001,537.941,0.0
52348.0,STARLINK-3829,PAYLOAD,2023-01-20 01:43:00,15.08835483,0.0001341999999999,53.2158,297.5189,71.8003,288.3135,0.00010454,1.376e-05,0.0,0 STARLINK-3829,1 52348U 22045T   23020.07152898  .00001376  00000-0  10454-3 0  9996,2 52348  53.2158 297.5189 0001342  71.8003 288.3135 15.08835483 42986,6917.894,95.438,540.688,538.831,0.0
52348.0,STARLINK-3829,PAYLOAD,2023-01-20 11:15:19,15.08835677,8.8e-05,53.2143,295.7367,65.988,294.1205,0.0014685,0.00023158,0.0,0 STARLINK-3829,1 52348U 22045T   23020.46897508  .00023158  00000-0  14685-2 0  9994,2 52348  53.2143 295.7367 0000880  65.9880 294.1205 15.08835677 43047,6917.894,95.438,540.367,539.15,0.0
52348.0,STARLINK-3829,PAYLOAD,2023-01-21 03:09:10,15.08851936,0.0001223,53.2144,292.76,66.7651,293.347,0.001405,0.00022151,0.0,0 STARLINK-3829,1 52348U 22045T   23021.13137624  .00022151  00000-0  14050-2 0  9993,2 52348  53.2144 292.7600 0001223  66.7651 293.3470 15.08851936 43144,6917.844,95.437,540.555,538.863,0.0
52348.0,STARLINK-3829,PAYLOAD,2023-01-21 11:06:06,15.08853783,9.02e-05,53.2143,291.2732,76.3703,283.73900000000003,0.00075241,0.00011711,0.0,0 STARLINK-3829,1 52348U 22045T   23021.46257259  .00011711  00000-0  75241-3 0  9996,2 52348  53.2143 291.2732 0000902  76.3703 283.7390 15.08853783 43192,6917.838000000001,95.437,540.327,539.0790000000001,0.0
52348.0,STARLINK-3829,PAYLOAD,2023-01-22 10:56:52,15.08856649,8.52e-05,53.2133,286.816,76.4032,283.7055,0.00063,9.757e-05,0.0,0 STARLINK-3829,1 52348U 22045T   23022.45616746  .00009757  00000-0  63000-3 0  9993,2 52348  53.2133 286.8160 0000852  76.4032 283.7055 15.08856649 43345,6917.83,95.437,540.284,539.105,0.0
52348.0,STARLINK-3829,PAYLOAD,2023-01-22 23:39:58,15.08824864,0.0001210999999999,53.2135,284.4328,107.4044,252.708,0.00056974,8.787e-05,0.0,0 STARLINK-3829,1 52348U 22045T   23022.98609459  .00008787  00000-0  56974-3 0  9998,2 52348  53.2135 284.4328 0001211 107.4044 252.7080 15.08824864 43422,6917.927,95.439,540.629,538.9540000000001,0.0
52348.0,STARLINK-3829,PAYLOAD,2023-01-24 02:41:32,15.08849015,0.0001514,53.2146,279.3744,117.3286,242.786,0.00068652,0.00010658,0.0,0 STARLINK-3829,1 52348U 22045T   23024.11217621  .00010658  00000-0  68652-3 0  9997,2 52348  53.2146 279.3744 0001514 117.3286 242.7860 15.08849015 43591,6917.853,95.437,540.765,538.67,0.0
